[{"OBJECT_NAME":"STARLINK-4333","OBJECT_ID":"2022-077AX","EPOCH":"2026-03-09T12:19:01.926336","MEAN_MOTION":15.01262655,"ECCENTRICITY":0.00021707,"INCLINATION":97.6023,"RA_OF_ASC_NODE":250.0502,"ARG_OF_PERICENTER":54.3924,"MEAN_ANOMALY":305.7503,"EPHEMERIS_TYPE":0,"CLASSIFICATION_TYPE":"U","NORAD_CAT_ID":53088,"ELEMENT_SET_NO":999,"REV_AT_EPOCH":20089,"BSTAR":4.5768666e-5,"MEAN_MOTION_DOT":5.3e-6,"MEAN_MOTION_DDOT":0},{"OBJECT_NAME":"KORSAT-3","OBJECT_ID":"2025-081A","EPOCH":"2026-03-09T21:24:50.510592","MEAN_MOTION":14.99637968,"ECCENTRICITY":0.00099231,"INCLINATION":45.4106,"RA_OF_ASC_NODE":130.6437,"ARG_OF_PERICENTER":32.4345,"MEAN_ANOMALY":327.7142,"EPHEMERIS_TYPE":0,"CLASSIFICATION_TYPE":"U","NORAD_CAT_ID":63630,"ELEMENT_SET_NO":999,"REV_AT_EPOCH":4828,"BSTAR":0.00043193523,"MEAN_MOTION_DOT":5.176e-5,"MEAN_MOTION_DDOT":0}]
